NORAD_CAT_ID,OBJECT_NAME,OBJECT_TYPE,EPOCH,MEAN_MOTION,ECCENTRICITY,INCLINATION,RA_OF_ASC_NODE,ARG_OF_PERICENTER,MEAN_ANOMALY,BSTAR,MEAN_MOTION_DOT,MEAN_MOTION_DDOT,TLE_LINE0,TLE_LINE1,TLE_LINE2,SEMIMAJOR_AXIS,PERIOD,APOGEE,PERIGEE,DECAYED
53641.0,STARLINK-4588,PAYLOAD,2023-06-21 18:32:49,15.08846254,0.0001035,53.2172,356.7181,82.4381,277.6729,-1.2631e-05,-4.89e-06,0.0,0 STARLINK-4588,1 53641U 22104BF  23172.77279622 -.00000489  00000-0 -12631-4 0  9995,2 53641  53.2172 356.7181 0001035  82.4381 277.6729 15.08846254 45469,6917.861,95.437,540.442,539.01,0.0
53641.0,STARLINK-4588,PAYLOAD,2023-06-22 18:23:37,15.08839896,9.75e-05,53.2171,352.258,92.3695,267.7409,0.00014011,1.943e-05,0.0,0 STARLINK-4588,1 53641U 22104BF  23173.76640084  .00001943  00000-0  14011-3 0  9996,2 53641  53.2171 352.2580 0000975  92.3695 267.7409 15.08839896 45618,6917.881,95.438,540.42,539.071,0.0
53641.0,STARLINK-4588,PAYLOAD,2023-06-24 16:29:48,15.08841784,0.0001091,53.2169,343.6343,84.5969,275.5148,0.00014353,1.997e-05,0.0,0 STARLINK-4588,1 53641U 22104BF  23175.68736267  .00001997  00000-0  14353-3 0  9996,2 53641  53.2169 343.6343 0001091  84.5969 275.5148 15.08841784 45901,6917.875,95.437,540.495,538.985,0.0
53641.0,STARLINK-4588,PAYLOAD,2023-06-25 03:37:30,15.08835656,0.0001054,53.2166,341.5533,87.7306,272.3807,8.3118e-06,-1.55e-06,0.0,0 STARLINK-4588,1 53641U 22104BF  23176.15104618 -.00000155  00000-0  83118-5 0  9991,2 53641  53.2166 341.5533 0001054  87.7306 272.3807 15.08835656 45970,6917.894,95.438,540.488,539.03,0.0
53641.0,STARLINK-4588,PAYLOAD,2023-06-25 17:55:58,15.0884456,0.0001015,53.2169,338.8772,84.58,275.5308,0.00015974,2.256e-05,0.0,0 STARLINK-4588,1 53641U 22104BF  23176.74720180  .00002256  00000-0  15974-3 0  9990,2 53641  53.2169 338.8772 0001015  84.5800 275.5308 15.08844560 46064,6917.866,95.437,540.434,539.029,0.0
53641.0,STARLINK-4588,PAYLOAD,2023-06-26 03:28:17,15.08840072,0.0001044,53.2171,337.0932,81.6854,278.4257,2.3238e-05,8.2e-07,0.0,0 STARLINK-4588,1 53641U 22104BF  23177.14464386  .00000082  00000-0  23238-4 0  9996,2 53641  53.2171 337.0932 0001044  81.6854 278.4257 15.08840072 46121,6917.88,95.438,540.467,539.023,0.0
53641.0,STARLINK-4588,PAYLOAD,2023-06-27 09:40:37,15.08836899,9.63e-05,53.2169,331.443,97.0225,263.0876,0.00010207,1.337e-05,0.0,0 STARLINK-4588,1 53641U 22104BF  23178.40320794  .00001337  00000-0  10207-3 0  9995,2 53641  53.2169 331.4430 0000963  97.0225 263.0876 15.08836899 46311,6917.89,95.438,540.421,539.089,0.0
53641.0,STARLINK-4588,PAYLOAD,2023-06-28 17:28:19,15.08842422,9.6e-05,53.217,325.4952,88.3488,271.7615,0.00011694,1.574e-05,0.0,0 STARLINK-4588,1 53641U 22104BF  23179.72800701  .00001574  00000-0  11694-3 0  9996,2 53641  53.2170 325.4952 0000960  88.3488 271.7615 15.08842422 46514,6917.873,95.437,540.402,539.074,0.0
53641.0,STARLINK-4588,PAYLOAD,2023-06-30 15:34:30,15.08846662,9.73e-05,53.2162,316.8707,84.6161,275.4942,0.00019845,2.873e-05,0.0,0 STARLINK-4588,1 53641U 22104BF  23181.64896555  .00002873  00000-0  19845-3 0  9991,2 53641  53.2162 316.8707 0000973  84.6161 275.4942 15.08846662 46804,6917.86,95.437,540.398,539.052,0.0
53641.0,STARLINK-4588,PAYLOAD,2023-07-01 09:03:45,15.08837152,0.0001133,53.2164,313.6004,84.3114,275.8008,4.3696e-05,4.08e-06,0.0,0 STARLINK-4588,1 53641U 22104BF  23182.37760931  .00000408  00000-0  43696-4 0  9994,2 53641  53.2164 313.6004 0001133  84.3114 275.8008 15.08837152 46918,6917.889,95.438,540.538,538.97,0.0
53641.0,STARLINK-4588,PAYLOAD,2023-07-02 15:16:04,15.08843901,9.93e-05,53.2173,307.9519,89.5294,270.5812,0.00014929,2.089e-05,0.0,0 STARLINK-4588,1 53641U 22104BF  23183.63616822  .00002089  00000-0  14929-3 0  9996,2 53641  53.2173 307.9519 0000993  89.5294 270.5812 15.08843901 47100,6917.868,95.437,540.42,539.047,0.0
53641.0,STARLINK-4588,PAYLOAD,2023-07-03 11:56:05,15.08841177,0.0001044,53.2176,304.0848,93.4131,266.698,0.00012642,1.725e-05,0.0,0 STARLINK-4588,1 53641U 22104BF  23184.49728973  .00001725  00000-0  12642-3 0  9998,2 53641  53.2176 304.0848 0001044  93.4131 266.6980 15.08841177 47237,6917.877,95.437,540.464,539.02,0.0
53641.0,STARLINK-4588,PAYLOAD,2023-07-04 14:57:39,15.08842055,0.0001068,53.2178,299.032,98.8786,261.2327,5.6418e-05,6.1e-06,0.0,0 STARLINK-4588,1 53641U 22104BF  23185.62337141  .00000610  00000-0  56418-4 0  9999,2 53641  53.2178 299.0320 0001068  98.8786 261.2327 15.08842055 47409,6917.874,95.437,540.478,539.0,0.0
53641.0,STARLINK-4588,PAYLOAD,2023-07-06 00:20:45,15.08840703,0.0001059,53.2175,292.7869,86.0072,274.1041,7.9961e-05,9.85e-06,0.0,0 STARLINK-4588,1 53641U 22104BF  23187.01441521  .00000985  00000-0  79961-4 0  9995,2 53641  53.2175 292.7869 0001059  86.0072 274.1041 15.08840703 47618,6917.878,95.438,540.476,539.011,0.0
53641.0,STARLINK-4588,PAYLOAD,2023-07-07 06:33:05,15.08842737,0.0001048,53.2169,287.1374,81.2715,278.8396,0.00017097,2.434e-05,0.0,0 STARLINK-4588,1 53641U 22104BF  23188.27297565  .00002434  00000-0  17097-3 0  9993,2 53641  53.2169 287.1374 0001048  81.2715 278.8396 15.08842737 47803,6917.872,95.437,540.462,539.012,0.0
53641.0,STARLINK-4588,PAYLOAD,2023-07-08 17:31:33,15.08849749,9.67e-05,53.2164,280.5942,90.8835,269.2268,0.00013769,1.905e-05,0.0,0 STARLINK-4588,1 53641U 22104BF  23189.73024875  .00001905  00000-0  13769-3 0  9991,2 53641  53.2164 280.5942 0000967  90.8835 269.2268 15.08849749 48021,6917.851,95.437,540.385,539.047,0.0
53641.0,STARLINK-4588,PAYLOAD,2023-07-09 12:36:12,15.08835267,0.0001015,53.2174,277.0261,94.5252,265.5856,-7.8391e-06,-4.12e-06,0.0,0 STARLINK-4588,1 53641U 22104BF  23190.52514037 -.00000412  00000-0 -78391-5 0  9992,2 53641  53.2174 277.0261 0001015  94.5252 265.5856 15.08835267 48141,6917.895,95.438,540.462,539.058,0.0
53641.0,STARLINK-4588,PAYLOAD,2023-07-10 12:26:58,15.08844152,9.72e-05,53.2173,272.5659,96.4983,263.612,0.0001182,1.594e-05,0.0,0 STARLINK-4588,1 53641U 22104BF  23191.51873343  .00001594  00000-0  11820-3 0  9992,2 53641  53.2173 272.5659 0000972  96.4983 263.6120 15.08844152 48296,6917.868,95.437,540.405,539.06,0.0
53641.0,STARLINK-4588,PAYLOAD,2023-07-10 21:59:18,15.08833935,9.47e-05,53.2172,270.7806,94.2751,265.8349,-1.312e-05,-4.96e-06,0.0,0 STARLINK-4588,1 53641U 22104BF  23191.91618240 -.00000496  00000-0 -13120-4 0  9997,2 53641  53.2172 270.7806 0000947  94.2751 265.8349 15.08833935 48351,6917.899,95.438,540.419,539.109,0.0
53641.0,STARLINK-4588,PAYLOAD,2023-07-11 21:50:04,15.08840378,9.9e-05,53.216,266.3207,92.9211,267.1895,7.9267e-05,9.74e-06,0.0,0 STARLINK-4588,1 53641U 22104BF  23192.90977857  .00000974  00000-0  79267-4 0  9992,2 53641  53.2160 266.3207 0000990  92.9211 267.1895 15.08840378 48505,6917.879,95.438,540.429,539.059,0.0
53641.0,STARLINK-4588,PAYLOAD,2023-07-13 11:59:20,15.08839622,9.92e-05,53.2158,259.1832,98.0769,262.0336,8.1897e-05,1.016e-05,0.0,0 STARLINK-4588,1 53641U 22104BF  23194.49954003  .00001016  00000-0  81897-4 0  9996,2 53641  53.2158 259.1832 0000992  98.0769 262.0336 15.08839622 48743,6917.882,95.438,540.433,539.06,0.0
53641.0,STARLINK-4588,PAYLOAD,2023-07-14 10:14:43,15.08864052,0.0001028,53.2163,255.0199,85.2392,274.8717,0.00050272,7.727e-05,0.0,0 STARLINK-4588,1 53641U 22104BF  23195.42689080  .00007727  00000-0  50272-3 0  9997,2 53641  53.2163 255.0199 0001028  85.2392 274.8717 15.08864052 48885,6917.807,95.436,540.383,538.961,0.0
53641.0,STARLINK-4588,PAYLOAD,2023-07-14 21:22:25,15.08830528,5.61e-05,53.2161,252.9373,126.3287,233.7757,-0.00023231,-3.982e-05,0.0,0 STARLINK-4588,1 53641U 22104BF  23195.89057559 -.00003982  00000-0 -23231-3 0  9994,2 53641  53.2161 252.9373 0000561 126.3287 233.7757 15.08830528 48951,6917.909,95.438,540.162,539.386,0.0
53641.0,STARLINK-4588,PAYLOAD,2023-07-16 03:34:46,15.08831965,0.0001414,53.2154,247.2894,83.2958,276.8195,0.00020758,3.017e-05,0.0,0 STARLINK-4588,1 53641U 22104BF  23197.14914474  .00003017  00000-0  20758-3 0  9990,2 53641  53.2154 247.2894 0001414  83.2958 276.8195 15.08831965 49144,6917.905,95.438,540.748,538.792,0.0
53641.0,STARLINK-4588,PAYLOAD,2023-07-17 09:47:05,15.08850936,0.0001355,53.2149,241.6396,86.9089,273.2058,0.00059966,9.271e-05,0.0,0 STARLINK-4588,1 53641U 22104BF  23198.40770596  .00009271  00000-0  59966-3 0  9996,2 53641  53.2149 241.6396 0001355  86.9089 273.2058 15.08850936 49331,6917.847,95.437,540.649,538.775,0.0
53641.0,STARLINK-4588,PAYLOAD,2023-07-17 19:19:24,15.08843206,0.0001369,53.2154,239.8554,85.393,274.7219,0.00019527,2.821e-05,0.0,0 STARLINK-4588,1 53641U 22104BF  23198.80514661  .00002821  00000-0  19527-3 0  9992,2 53641  53.2154 239.8554 0001369  85.3930 274.7219 15.08843206 49398,6917.871,95.437,540.683,538.789,0.0
53641.0,STARLINK-4588,PAYLOAD,2023-07-19 03:07:07,15.08837758,0.0001284,53.2153,233.909,87.6541,272.4598,-5.3206e-05,-1.134e-05,0.0,0 STARLINK-4588,1 53641U 22104BF  23200.12994801 -.00001134  00000-0 -53206-4 0  9990,2 53641  53.2153 233.9090 0001284  87.6541 272.4598 15.08837758 49598,6917.887,95.438,540.64,538.864,0.0
53641.0,STARLINK-4588,PAYLOAD,2023-07-21 02:48:41,15.08842467,0.0001136,53.2161,224.9858,96.9182,263.1939,0.00015012,2.102e-05,0.0,0 STARLINK-4588,1 53641U 22104BF  23202.11714810  .00002102  00000-0  15012-3 0  9997,2 53641  53.2161 224.9858 0001136  96.9182 263.1939 15.08842467 49891,6917.873,95.437,540.524,538.952,0.0
53641.0,STARLINK-4588,PAYLOAD,2023-07-24 10:17:58,15.08853367,0.0002141,53.217,210.1163,120.9518,239.1685,-0.00021945,-3.781e-05,0.0,0 STARLINK-4588,1 53641U 22104BF  23205.42914513 -.00003781  00000-0 -21945-3 0  9994,2 53641  53.2170 210.1163 0002141 120.9518 239.1685 15.08853367 51418,6917.84,95.437,541.186,538.223,0.0
53641.0,STARLINK-4588,PAYLOAD,2023-07-25 06:57:59,15.08830583,0.0001819,53.2163,206.2523,100.3534,259.7663,0.00011724,1.578e-05,0.0,0 STARLINK-4588,1 53641U 22104BF  23206.29027627  .00001578  00000-0  11724-3 0  9995,2 53641  53.2163 206.2523 0001819 100.3534 259.7663 15.08830583 51540,6917.909,95.438,541.033,538.516,0.0
